INTELSAT 9 (IS-9)       
1 26451U 00043A   25153.81130208 -.00000016  00000+0  00000+0 0  9990
2 26451   9.5528  52.6377 0004271  24.6707 172.5159  1.00272862 91041
INTELSAT 10 (IS-10)     
1 26766U 01019A   25152.83933795 -.00000013  00000+0  00000+0 0  9993
2 26766   8.1654  63.1362 0003895 352.9632 202.7023  1.00272815 88119
INTELSAT 902 (IS-902)   
1 26900U 01039A   25150.71846988 -.00000289  00000+0  00000+0 0  9992
2 26900   5.1503  76.4641 0004401 349.0958  31.4724  1.00270881 86864
INTELSAT 904 (IS-904)   
1 27380U 02007A   25153.56072128 -.00000217  00000+0  00000+0 0  9995
2 27380   5.9705  73.7380 0002883 358.6628 351.1979  1.00269331 85288
DIRECTV 5 (TEMPO 1)     
1 27426U 02023A   25153.99049116 -.00000056  00000+0  00000+0 0  9993
2 27426   3.9087  80.0737 0003411   2.1932  55.8816  1.00272593 84500
INTELSAT 905 (IS-905)   
1 27438U 02027A   25153.48537722  .00000093  00000+0  00000+0 0  9999
2 27438   5.7987  74.3772 0002608 345.1017 229.2334  1.00270914 84156
GALAXY 3C (G-3C)        
1 27445U 02030A   25153.56514980 -.00000153  00000+0  00000+0 0  9999
2 27445   2.7552  82.7827 0003162  43.8386 233.2521  1.00271858 84140
INTELSAT 906 (IS-906)   
1 27513U 02041A   25153.95365387  .00000014  00000+0  00000+0 0  9990
2 27513   4.8382  77.6126 0004031 356.1475 225.3510  1.00271358 83166
GALAXY 23 (G-23)        
1 27854U 03034A   25154.30513501  .00000033  00000+0  00000+0 0  9995
2 27854   2.2179  84.4164 0001020 139.0476  16.5708  1.00166238 84746
GALAXY 13 (HORIZONS-1)  
1 27954U 03044A   25153.41149231  .00000131  00000+0  00000+0 0  9992
2 27954   0.4365  89.8993 0002136 338.6884 180.6766  1.00272528 79349
INTELSAT 10-02          
1 28358U 04022A   25152.37015537 -.00000016  00000+0  00000+0 0  9996
2 28358   0.0329  70.4915 0000690 341.6620 330.2108  1.00270143 76733
XM-3 (RHYTHM)           
1 28626U 05008A   25154.13358447 -.00000198  00000+0  00000+0 0  9996
2 28626   0.0346 134.6207 0001041 142.1726 296.7830  1.00269130 74267
DIRECTV 8               
1 28659U 05019A   25154.13148503  .00000002  00000+0  00000+0 0  9997
2 28659   0.0165 310.3720 0002950 123.6129 106.1460  1.00273130 73386
GALAXY 28 (G-28)        
1 28702U 05022A   25154.49444850 -.00000185  00000+0  00000+0 0  9996
2 28702   2.3231  83.6798 0001917 358.5366 259.2983  1.00272142 73037
GALAXY 16 (G-16)        
1 29236U 06023A   25154.06410052 -.00000127  00000+0  00000+0 0  9997
2 29236   0.0006  60.6573 0003083  23.5254  91.6525  1.00273925 69464
DIRECTV 9S              
1 29494U 06043A   25154.49201584 -.00000111  00000+0  00000+0 0  9993
2 29494   1.4441  85.5798 0002931 345.7105 256.8219  1.00271550 68318
GALAXY 17 (G-17)        
1 31307U 07016B   25154.49514354 -.00000204  00000+0  00000+0 0  9995
2 31307   2.0146  84.7736 0001935   1.3213 259.3238  1.00274378 66288
DIRECTV 10              
1 31862U 07032A   25154.49166832 -.00000101  00000+0  00000+0 0  9999
2 31862   0.0277 181.2325 0000343 117.8338  27.3248  1.00272466 65602
INTELSAT 11 (IS-11)     
1 32253U 07044B   25154.36763465 -.00000200  00000+0  00000+0 0  9998
2 32253   2.5797  83.3849 0002408  55.2105 237.6843  0.99050077 64723
HORIZONS-2              
1 32388U 07063B   25153.78357027 -.00000254  00000+0  00000+0 0  9995
2 32388   1.6239  85.3963 0001923 351.0360  23.3323  1.00273638 64077
DIRECTV 11              
1 32729U 08013A   25153.56436788 -.00000127  00000+0  00000+0 0  9997
2 32729   0.0128  85.3680 0000829 225.8466  44.0409  1.00269707 63134
GALAXY 18 (G-18)        
1 32951U 08024A   25154.16354302  .00000026  00000+0  00000+0 0  9991
2 32951   0.0162 303.0432 0003161 133.1817 111.4996  1.00273907 62289
INTELSAT 25 (IS-25)     
1 33153U 08034A   25153.43478593 -.00000225  00000+0  00000+0 0  9997
2 33153   1.7297  85.0617 0003025 355.9668 295.1465  1.00270658 61831
GALAXY 19 (G-19)        
1 33376U 08045A   25154.06453492 -.00000139  00000+0  00000+0 0  9991
2 33376   0.0157  15.0869 0002872  63.1207  99.7882  1.00272943 61035
FM-5                    
1 35493U 09034A   25154.13357927 -.00000199  00000+0  00000+0 0  9992
2 35493   0.0124 299.0383 0000534  23.9369 250.8057  1.00270555 58174
INTELSAT 14 (IS-14)     
1 36097U 09064A   25154.14622304 -.00000273  00000+0  00000+0 0  9994
2 36097   0.0150 307.3244 0002163 128.3249 183.8476  1.00271960 56898
INTELSAT 15 (IS-15)     
1 36106U 09067A   25152.87475266 -.00000189  00000+0  00000+0 0  9995
2 36106   0.0153 333.3306 0002112 106.3922 210.9297  1.00271299 37413
DIRECTV 12              
1 36131U 09075A   25154.49166832 -.00000102  00000+0  00000+0 0  9993
2 36131   0.0265 111.0357 0000602 298.9478 276.4714  1.00276319 56597
INTELSAT 16 (IS-16)     
1 36397U 10006A   25154.13996766 -.00000244  00000+0  00000+0 0  9998
2 36397   0.0086 354.4613 0002598 112.8611 118.7072  1.00271014 55916
XM-5                    
1 37185U 10053A   25154.48923567 -.00000021  00000+0  00000+0 0  9996
2 37185   0.0364 281.3691 0002099 283.2227 108.5172  1.00270321 53643
INTELSAT 17 (IS-17)     
1 37238U 10065B   25153.81121521 -.00000002  00000+0  00000+0 0  9993
2 37238   0.0161 287.7718 0002526 150.0463 171.7422  1.00271608 53116
INTELSAT 28 (IS-28)     
1 37392U 11016A   25154.36294310 -.00000223  00000+0  00000+0 0  9994
2 37392   0.8278  87.6428 0003936 339.1635 284.1943  1.00274154 51716
INTELSAT 18 (IS-18)     
1 37834U 11056A   25154.53586481  .00000055  00000+0  00000+0 0  9993
2 37834   0.0033 346.9000 0002201 101.4314 176.8046  1.00271755 50043
INTELSAT 22 (IS-22)     
1 38098U 12011A   25152.88437404 -.00000063  00000+0  00000+0 0  9994
2 38098   0.0121  69.1523 0002108  17.6941 194.2437  1.00272538  3370
INTELSAT 19 (IS-19)     
1 38356U 12030A   25154.18447559 -.00000055  00000+0  00000+0 0  9990
2 38356   0.0131 339.3609 0002862  95.1434  49.7988  1.00272936 47713
INTELSAT 20 (IS-20)     
1 38740U 12043A   25153.81173649 -.00000025  00000+0  00000+0 0  9993
2 38740   0.0100  88.1749 0001646  95.5152  68.5536  1.00271737 47020
INTELSAT 21 (IS-21)     
1 38749U 12045A   25154.42912404 -.00000283  00000+0  00000+0 0  9998
2 38749   0.0223  63.2608 0001787  15.7413 269.6127  1.00271139 46848
INTELSAT 23 (IS-23)     
1 38867U 12057A   25153.43070255 -.00000286  00000+0  00000+0 0  9994
2 38867   0.0486 119.0609 0000530  63.8385 170.2934  1.00275505 46291
FM-6                    
1 39360U 13058A   25153.63237586 -.00000018  00000+0  00000+0 0  9992
2 39360   0.0044 356.5248 0001479 149.4550 216.8673  1.00269958 42541
INTELSAT 30 (IS-30)     
1 40271U 14062A   25154.42388387 -.00000148  00000+0  00000+0 0  9999
2 40271   0.0162  19.1310 0001809 356.4627 294.0751  1.00263180 38966
DIRECTV 14              
1 40333U 14078B   25154.43253417 -.00000123  00000+0  00000+0 0  9994
2 40333   0.0179 337.8941 0000194 222.7187 108.0049  1.00269381 38452
DIRECTV 15              
1 40663U 15026A   25154.23099941 -.00000102  00000+0  00000+0 0  9999
2 40663   0.0177 332.8808 0000843 194.0266  65.3166  1.00271637 36734
SKY MEXICO-1            
1 40664U 15026B   25154.49644675 -.00000232  00000+0  00000+0 0  9992
2 40664   0.0131   4.2197 0001948  68.5548 279.3696  1.00270667 36738
INTELSAT 34 (IS-34)     
1 40874U 15039A   25153.78713236 -.00000286  00000+0  00000+0 0  9999
2 40874   0.0124 293.0900 0001459  42.5710 143.7151  1.00271753 35818
INTELSAT 31 (IS-31)     
1 41581U 16035A   25153.85071530 -.00000151  00000+0  00000+0 0  9995
2 41581   0.0172 286.0062 0002043 323.8299 212.9138  1.00270043 32873
INTELSAT 36 (IS-36)     
1 41747U 16053A   25154.16872617 -.00000024  00000+0  00000+0 0  9998
2 41747   0.0115 357.2261 0001747 330.4310  53.4549  1.00271630 32141
INTELSAT 32E (IS-32E)   
1 41945U 17007B   25154.36068421 -.00000268  00000+0  00000+0 0  9990
2 41945   0.0192  55.7882 0000817 272.5437  10.3948  1.00269678 30454
INTELSAT 35E (IS-35E)   
1 42818U 17041A   25153.79130262 -.00000238  00000+0  00000+0 0  9994
2 42818   0.0141 285.6089 0001875 140.4265  75.8485  1.00271974 29001
INTELSAT 37E (IS-37E)   
1 42950U 17059A   25154.16711395 -.00000140  00000+0  00000+0 0  9996
2 42950   0.0178 337.3565 0002303 112.2040 204.4615  1.00271110 28249
AZERSPACE 2 (IS-38)     
1 43632U 18074A   25154.16403462  .00000137  00000+0  00000+0 0  9990
2 43632   0.0184 319.9097 0001424 103.1110 292.9978  1.00271158 24646
HORIZONS-3E             
1 43633U 18074B   25154.53586481 -.00000028  00000+0  00000+0 0  9995
2 43633   0.0422 162.5735 0000691 133.3194 318.2492  1.00271016 24528
AT&T T-16               
1 44333U 19034A   25154.49201584 -.00000113  00000+0  00000+0 0  9998
2 44333   0.0359  90.3468 0000402 219.7806  18.3161  1.00268950 21830
INTELSAT 39 (IS-39)     
1 44476U 19049B   25154.16742296  .00000034  00000+0  00000+0 0  9997
2 44476   0.0174 311.4514 0001047   8.1105  54.5270  1.00271023 21322
GALAXY 30 (G-30)        
1 46114U 20056C   25154.48723742  .00000039  00000+0  00000+0 0  9993
2 46114   0.0098  32.8257 0002109  38.3721 231.3698  1.00272673 17602
GALAXY 33 (G-33)        
1 54026U 22128A   25153.62898752  .00000078  00000+0  00000+0 0  9998
2 54026   0.0095   5.1461 0001731  61.8814 277.7487  1.00272169  9931
GALAXY 34 (G-34)        
1 54027U 22128B   25154.36673483  .00000062  00000+0  00000+0 0  9996
2 54027   0.0178 319.2729 0001734 162.7242 133.0722  1.00262157  9975
GALAXY 31 (G-31)        
1 54243U 22153A   25154.48801934  .00000015  00000+0  00000+0 0  9999
2 54243   0.0076   6.9543 0000524  16.6433 283.2744  1.00272495  9351
GALAXY 32 (G-32)        
1 54244U 22153B   25153.63732804 -.00000175  00000+0  00000+0 0  9993
2 54244   0.0089 338.3608 0002217  53.8027 357.6172  1.00271376  9362
GALAXY 35 (G-35)        
1 54741U 22170A   25153.85097594 -.00000162  00000+0  00000+0 0  9994
2 54741   0.0109 333.6093 0002059 100.1261  31.0647  1.00268764  9102
GALAXY 36 (G-36)        
1 54742U 22170B   25154.13744812 -.00000185  00000+0  00000+0 0  9994
2 54742   0.0146 272.1033 0002810 172.8230 127.3937  1.00271639  9119
GALAXY 37 (G-37)        
1 57493U 23112A   25153.63020384  .00000047  00000+0  00000+0 0  9998
2 57493   0.0142 308.7993 0001856 114.4739 287.9363  1.00271303  6714
